{"type": "FeatureCollection", "features": [ {"type": "Feature", "properties": {"norad_id": 37834, "name": "INTELSAT 18 (IS-18)", "group": "intelsat", "lat": 0.01203204106246143, "lon": 141.9758757818515, "alt_km": 35790.97236842698, "timestamp": "2025-12-16T15:45:50.712292+00:00", "meta": {"OBJECT_NAME": "INTELSAT 18 (IS-18)", "OBJECT_ID": "2011-056A", "EPOCH": "2025-12-15T19:22:49.704672", "MEAN_MOTION": 1.00272258, "ECCENTRICITY": 0.00016788, "INCLINATION": 0.002, "RA_OF_ASC_NODE": 4.2129, "ARG_OF_PERICENTER": 273.691, "MEAN_ANOMALY": 277.504, "EPHEMERIS_TYPE": 0, "CLASSIFICATION_TYPE": "U", "NORAD_CAT_ID": 37834, "ELEMENT_SET_NO": 999, "REV_AT_EPOCH": 5197, "BSTAR": 0, "MEAN_MOTION_DOT": 7.5e-07, "MEAN_MOTION_DDOT": 0}, "tle": {"line1": "1 37834U 11056A   25349.80751973  .00000075  00000+0  00000+0 0  9991", "line2": "2 37834   0.0020   4.2129 0001678 273.6910 277.5040  1.00272258 51971"}}, "geometry": {"type": "Point", "coordinates": [141.9758757818515, 0.01203204106246143]}}, {"type": "Feature", "properties": {"norad_id": 38098, "name": "INTELSAT 22 (IS-22)", "group": "intelsat", "lat": 0.02119148033725853, "lon": 34.12328980135831, "alt_km": 35790.384669800325, "timestamp": "2025-12-16T15:45:50.712305+00:00", "meta": {"OBJECT_NAME": "INTELSAT 22 (IS-22)", "OBJECT_ID": "2012-011A", "EPOCH": "2025-12-15T22:17:30.061824", "MEAN_MOTION": 1.00271356, "ECCENTRICITY": 0.00017551, "INCLINATION": 0.0042, "RA_OF_ASC_NODE": 351.9577, "ARG_OF_PERICENTER": 277.8954, "MEAN_ANOMALY": 221.4628, "EPHEMERIS_TYPE": 0, "CLASSIFICATION_TYPE": "U", "NORAD_CAT_ID": 38098, "ELEMENT_SET_NO": 999, "REV_AT_EPOCH": 535, "BSTAR": 0, "MEAN_MOTION_DOT": -3.6e-07, "MEAN_MOTION_DDOT": 0}, "tle": {"line1": "1 38098U 12011A   25349.92882016 -.00000036  00000+0  00000+0 0  9990", "line2": "2 38098   0.0042 351.9577 0001755 277.8954 221.4628  1.00271356  5356"}}, "geometry": {"type": "Point", "coordinates": [34.12328980135831, 0.02119148033725853]}}, {"type": "Feature", "properties": {"norad_id": 38356, "name": "INTELSAT 19 (IS-19)", "group": "intelsat", "lat": 0.015809401349066804, "lon": 127.98676617085015, "alt_km": 35797.26487266234, "timestamp": "2025-12-16T15:45:50.712317+00:00", "meta": {"OBJECT_NAME": "INTELSAT 19 (IS-19)", "OBJECT_ID": "2012-030A", "EPOCH": "2025-12-15T21:01:29.839584", "MEAN_MOTION": 1.00271898, "ECCENTRICITY": 0.00032083, "INCLINATION": 0.0089, "RA_OF_ASC_NODE": 335.2948, "ARG_OF_PERICENTER": 298.57, "MEAN_ANOMALY": 292.2976, "EPHEMERIS_TYPE": 0, "CLASSIFICATION_TYPE": "U", "NORAD_CAT_ID": 38356, "ELEMENT_SET_NO": 999, "REV_AT_EPOCH": 4861, "BSTAR": 0, "MEAN_MOTION_DOT": -3.4e-07, "MEAN_MOTION_DDOT": 0}, "tle": {"line1": "1 38356U 12030A   25349.87603981 -.00000034  00000+0  00000+0 0  9992", "line2": "2 38356   0.0089 335.2948 0003208 298.5700 292.2976  1.00271898 48614"}}, "geometry": {"type": "Point", "coordinates": [127.98676617085015, 0.015809401349066804]}}, {"type": "Feature", "properties": {"norad_id": 38740, "name": "INTELSAT 20 (IS-20)", "group": "intelsat", "lat": 0.004663180790295137, "lon": 30.457979435771563, "alt_km": 35797.90381831958, "timestamp": "2025-12-16T15:45:50.712329+00:00", "meta": {"OBJECT_NAME": "INTELSAT 20 (IS-20)", "OBJECT_ID": "2012-043A", "EPOCH": "2025-12-15T22:16:22.668960", "MEAN_MOTION": 1.00267038, "ECCENTRICITY": 0.00029308, "INCLINATION": 0.0054, "RA_OF_ASC_NODE": 65.4613, "ARG_OF_PERICENTER": 113.6501, "MEAN_ANOMALY": 308.3028, "EPHEMERIS_TYPE": 0, "CLASSIFICATION_TYPE": "U", "NORAD_CAT_ID": 38740, "ELEMENT_SET_NO": 999, "REV_AT_EPOCH": 4891, "BSTAR": 0, "MEAN_MOTION_DOT": -1e-08, "MEAN_MOTION_DDOT": 0}, "tle": {"line1": "1 38740U 12043A   25349.92804015 -.00000001  00000+0  00000+0 0  9994", "line2": "2 38740   0.0054  65.4613 0002930 113.6501 308.3028  1.00267038 48912"}}, "geometry": {"type": "Point", "coordinates": [30.457979435771563, 0.004663180790295137]}}, {"type": "Feature", "properties": {"norad_id": 38749, "name": "INTELSAT 21 (IS-21)", "group": "intelsat", "lat": -0.023776794339699047, "lon": -96.0046101466864, "alt_km": 35779.29490861507, "timestamp": "2025-12-16T15:45:50.712342+00:00", "meta": {"OBJECT_NAME": "INTELSAT 21 (IS-21)", "OBJECT_ID": "2012-045A", "EPOCH": "2025-12-15T21:40:18.622848", "MEAN_MOTION": 1.00271347, "ECCENTRICITY": 0.00016523, "INCLINATION": 0.0356, "RA_OF_ASC_NODE": 78.6306, "ARG_OF_PERICENTER": 186.2147, "MEAN_ANOMALY": 87.0369, "EPHEMERIS_TYPE": 0, "CLASSIFICATION_TYPE": "U", "NORAD_CAT_ID": 38749, "ELEMENT_SET_NO": 999, "REV_AT_EPOCH": 4868, "BSTAR": 0, "MEAN_MOTION_DOT": -2.62e-06, "MEAN_MOTION_DDOT": 0}, "tle": {"line1": "1 38749U 12045A   25349.90299332 -.00000262  00000+0  00000+0 0  9992", "line2": "2 38749   0.0356  78.6306 0001652 186.2147  87.0369  1.00271347 48684"}}, "geometry": {"type": "Point", "coordinates": [-96.0046101466864, -0.023776794339699047]}}, {"type": "Feature", "properties": {"norad_id": 38867, "name": "INTELSAT 23 (IS-23)", "group": "intelsat", "lat": -0.020766028499611226, "lon": -90.96745596494185, "alt_km": 35783.55964299646, "timestamp": "2025-12-16T15:45:50.712353+00:00", "meta": {"OBJECT_NAME": "INTELSAT 23 (IS-23)", "OBJECT_ID": "2012-057A", "EPOCH": "2025-12-15T18:16:18.574176", "MEAN_MOTION": 1.0027729, "ECCENTRICITY": 5.459e-05, "INCLINATION": 0.0474, "RA_OF_ASC_NODE": 95.7976, "ARG_OF_PERICENTER": 111.0843, "MEAN_ANOMALY": 98.873, "EPHEMERIS_TYPE": 0, "CLASSIFICATION_TYPE": "U", "NORAD_CAT_ID": 38867, "ELEMENT_SET_NO": 999, "REV_AT_EPOCH": 4811, "BSTAR": 0, "MEAN_MOTION_DOT": -2.62e-06, "MEAN_MOTION_DDOT": 0}, "tle": {"line1": "1 38867U 12057A   25349.76132609 -.00000262  00000+0  00000+0 0  9993", "line2": "2 38867   0.0474  95.7976 0000545 111.0843  98.8730  1.00277290 48111"}}, "geometry": {"type": "Point", "coordinates": [-90.96745596494185, -0.020766028499611226]}}, {"type": "Feature", "properties": {"norad_id": 39360, "name": "FM-6", "group": "intelsat", "lat": -0.005156834440268027, "lon": -154.14645494377024, "alt_km": 35776.077014166156, "timestamp": "2025-12-16T15:45:50.712365+00:00", "meta": {"OBJECT_NAME": "FM-6", "OBJECT_ID": "2013-058A", "EPOCH": "2025-12-15T08:27:38.617056", "MEAN_MOTION": 1.00269303, "ECCENTRICITY": 0.00029093, "INCLINATION": 0.0082, "RA_OF_ASC_NODE": 55.5333, "ARG_OF_PERICENTER": 120.9594, "MEAN_ANOMALY": 278.5314, "EPHEMERIS_TYPE": 0, "CLASSIFICATION_TYPE": "U", "NORAD_CAT_ID": 39360, "ELEMENT_SET_NO": 999, "REV_AT_EPOCH": 4423, "BSTAR": 0, "MEAN_MOTION_DOT": 4e-08, "MEAN_MOTION_DDOT": 0}, "tle": {"line1": "1 39360U 13058A   25349.35253029  .00000004  00000+0  00000+0 0  9992", "line2": "2 39360   0.0082  55.5333 0002909 120.9594 278.5314  1.00269303 44234"}}, "geometry": {"type": "Point", "coordinates": [-154.14645494377024, -0.005156834440268027]}}, {"type": "Feature", "properties": {"norad_id": 40271, "name": "INTELSAT 30 (IS-30)", "group": "intelsat", "lat": -0.02441374363525297, "lon": -133.10682400308522, "alt_km": 35794.655490654455, "timestamp": "2025-12-16T15:45:50.712378+00:00", "meta": {"OBJECT_NAME": "INTELSAT 30 (IS-30)", "OBJECT_ID": "2014-062A", "EPOCH": "2025-12-15T04:22:30.006336", "MEAN_MOTION": 1.00262844, "ECCENTRICITY": 0.00014931, "INCLINATION": 0.014, "RA_OF_ASC_NODE": 18.4031, "ARG_OF_PERICENTER": 46.4436, "MEAN_ANOMALY": 349.8109, "EPHEMERIS_TYPE": 0, "CLASSIFICATION_TYPE": "U", "NORAD_CAT_ID": 40271, "ELEMENT_SET_NO": 999, "REV_AT_EPOCH": 494, "BSTAR": 0, "MEAN_MOTION_DOT": -1.29e-06, "MEAN_MOTION_DDOT": 0}, "tle": {"line1": "1 40271U 14062A   25349.18229174 -.00000129  00000+0  00000+0 0  9995", "line2": "2 40271   0.0140  18.4031 0001493  46.4436 349.8109  1.00262844  4940"}}, "geometry": {"type": "Point", "coordinates": [-133.10682400308522, -0.02441374363525297]}}, {"type": "Feature", "properties": {"norad_id": 40333, "name": "DIRECTV 14", "group": "intelsat", "lat": -0.018242860284566193, "lon": -137.2308476159772, "alt_km": 35785.49046403061, "timestamp": "2025-12-16T15:45:50.712389+00:00", "meta": {"OBJECT_NAME": "DIRECTV 14", "OBJECT_ID": "2014-078B", "EPOCH": "2025-12-15T21:28:34.747104", "MEAN_MOTION": 1.0027094, "ECCENTRICITY": 4.528e-05, "INCLINATION": 0.0012, "RA_OF_ASC_NODE": 6.335, "ARG_OF_PERICENTER": 153.1021, "MEAN_ANOMALY": 148.274, "EPHEMERIS_TYPE": 0, "CLASSIFICATION_TYPE": "U", "NORAD_CAT_ID": 40333, "ELEMENT_SET_NO": 999, "REV_AT_EPOCH": 4020, "BSTAR": 0, "MEAN_MOTION_DOT": -1.03e-06, "MEAN_MOTION_DDOT": 0}, "tle": {"line1": "1 40333U 14078B   25349.89484661 -.00000103  00000+0  00000+0 0  9995", "line2": "2 40333   0.0012   6.3350 0000452 153.1021 148.2740  1.00270940 40204"}}, "geometry": {"type": "Point", "coordinates": [-137.2308476159772, -0.018242860284566193]}}, {"type": "Feature", "properties": {"norad_id": 40663, "name": "DIRECTV 15", "group": "intelsat", "lat": 0.0024432406531279555, "lon": -140.88503795554954, "alt_km": 35787.34468683424, "timestamp": "2025-12-16T15:45:50.712401+00:00", "meta": {"OBJECT_NAME": "DIRECTV 15", "OBJECT_ID": "2015-026A", "EPOCH": "2025-12-15T21:27:34.843392", "MEAN_MOTION": 1.00269327, "ECCENTRICITY": 1.542e-05, "INCLINATION": 0.0395, "RA_OF_ASC_NODE": 83.2916, "ARG_OF_PERICENTER": 286.4777, "MEAN_ANOMALY": 294.0471, "EPHEMERIS_TYPE": 0, "CLASSIFICATION_TYPE": "U", "NORAD_CAT_ID": 40663, "ELEMENT_SET_NO": 999, "REV_AT_EPOCH": 3862, "BSTAR": 0, "MEAN_MOTION_DOT": -8e-07, "MEAN_MOTION_DDOT": 0}, "tle": {"line1": "1 40663U 15026A   25349.89415328 -.00000080  00000+0  00000+0 0  9993", "line2": "2 40663   0.0395  83.2916 0000154 286.4777 294.0471  1.00269327 38624"}}, "geometry": {"type": "Point", "coordinates": [-140.88503795554954, 0.0024432406531279555]}}]}